CCSDS_OMM_VERS = 2.0
CREATION_DATE  = 
ORIGINATOR     = 

OBJECT_NAME    = ATLAS CENTAUR 2
OBJECT_ID      = 1963-047A
CENTER_NAME    = EARTH
REF_FRAME      = TEME
TIME_SYSTEM    = UTC
MEAN_ELEMENT_THEORY = SGP/SGP4

EPOCH          = 2025-10-26T20:01:38.404128
MEAN_MOTION    = 14.11305313
ECCENTRICITY   = .055046
INCLINATION    = 30.3551
RA_OF_ASC_NODE = 223.3708
ARG_OF_PERICENTER = 341.1174
MEAN_ANOMALY   = 16.9730

EPHEMERIS_TYPE = 0
CLASSIFICATION_TYPE = U
NORAD_CAT_ID   = 694
ELEMENT_SET_NO = 999
REV_AT_EPOCH   = 11269
BSTAR          = .54749E-3
MEAN_MOTION_DOT = .4526E-4
MEAN_MOTION_DDOT = 0

CCSDS_OMM_VERS = 2.0
CREATION_DATE  = 
ORIGINATOR     = 

OBJECT_NAME    = THOR AGENA D R/B
OBJECT_ID      = 1964-002A
CENTER_NAME    = EARTH
REF_FRAME      = TEME
TIME_SYSTEM    = UTC
MEAN_ELEMENT_THEORY = SGP/SGP4

EPOCH          = 2025-10-26T18:17:30.140160
MEAN_MOTION    = 14.33918080
ECCENTRICITY   = .0031994
INCLINATION    = 99.1225
RA_OF_ASC_NODE = 300.8377
ARG_OF_PERICENTER = 289.1265
MEAN_ANOMALY   = 70.6455

EPHEMERIS_TYPE = 0
CLASSIFICATION_TYPE = U
NORAD_CAT_ID   = 733
ELEMENT_SET_NO = 999
REV_AT_EPOCH   = 21910
BSTAR          = .15154E-3
MEAN_MOTION_DOT = .376E-5
MEAN_MOTION_DDOT = 0

CCSDS_OMM_VERS = 2.0
CREATION_DATE  = 
ORIGINATOR     = 

OBJECT_NAME    = SL-3 R/B
OBJECT_ID      = 1964-053B
CENTER_NAME    = EARTH
REF_FRAME      = TEME
TIME_SYSTEM    = UTC
MEAN_ELEMENT_THEORY = SGP/SGP4

EPOCH          = 2025-10-26T13:17:44.303136
MEAN_MOTION    = 14.61203689
ECCENTRICITY   = .0069259
INCLINATION    = 65.0789
RA_OF_ASC_NODE = 4.4398
ARG_OF_PERICENTER = 336.5211
MEAN_ANOMALY   = 23.2730

EPHEMERIS_TYPE = 0
CLASSIFICATION_TYPE = U
NORAD_CAT_ID   = 877
ELEMENT_SET_NO = 999
REV_AT_EPOCH   = 24719
BSTAR          = .10245E-3
MEAN_MOTION_DOT = .399E-5
MEAN_MOTION_DDOT = 0

CCSDS_OMM_VERS = 2.0
CREATION_DATE  = 
ORIGINATOR     = 

OBJECT_NAME    = SL-8 R/B
OBJECT_ID      = 1967-045B
CENTER_NAME    = EARTH
REF_FRAME      = TEME
TIME_SYSTEM    = UTC
MEAN_ELEMENT_THEORY = SGP/SGP4

EPOCH          = 2025-10-26T05:55:27.790752
MEAN_MOTION    = 14.45481578
ECCENTRICITY   = .0065705
INCLINATION    = 74.0107
RA_OF_ASC_NODE = 239.1385
ARG_OF_PERICENTER = 278.7162
MEAN_ANOMALY   = 80.6557

EPHEMERIS_TYPE = 0
CLASSIFICATION_TYPE = U
NORAD_CAT_ID   = 2802
ELEMENT_SET_NO = 999
REV_AT_EPOCH   = 6959
BSTAR          = .17743E-3
MEAN_MOTION_DOT = .613E-5
MEAN_MOTION_DDOT = 0

CCSDS_OMM_VERS = 2.0
CREATION_DATE  = 
ORIGINATOR     = 

OBJECT_NAME    = SL-8 R/B
OBJECT_ID      = 1968-040B
CENTER_NAME    = EARTH
REF_FRAME      = TEME
TIME_SYSTEM    = UTC
MEAN_ELEMENT_THEORY = SGP/SGP4

EPOCH          = 2025-10-26T19:48:32.811264
MEAN_MOTION    = 15.02059761
ECCENTRICITY   = .0023249
INCLINATION    = 74.0321
RA_OF_ASC_NODE = 226.9703
ARG_OF_PERICENTER = 83.2556
MEAN_ANOMALY   = 277.1277

EPHEMERIS_TYPE = 0
CLASSIFICATION_TYPE = U
NORAD_CAT_ID   = 3230
ELEMENT_SET_NO = 999
REV_AT_EPOCH   = 6990
BSTAR          = .40137E-3
MEAN_MOTION_DOT = .5261E-4
MEAN_MOTION_DDOT = 0

CCSDS_OMM_VERS = 2.0
CREATION_DATE  = 
ORIGINATOR     = 

OBJECT_NAME    = OAO 2
OBJECT_ID      = 1968-110A
CENTER_NAME    = EARTH
REF_FRAME      = TEME
TIME_SYSTEM    = UTC
MEAN_ELEMENT_THEORY = SGP/SGP4

EPOCH          = 2025-10-26T15:59:51.880416
MEAN_MOTION    = 14.47200910
ECCENTRICITY   = .0005884
INCLINATION    = 34.9938
RA_OF_ASC_NODE = 293.4473
ARG_OF_PERICENTER = 207.5480
MEAN_ANOMALY   = 152.4899

EPHEMERIS_TYPE = 0
CLASSIFICATION_TYPE = U
NORAD_CAT_ID   = 3597
ELEMENT_SET_NO = 999
REV_AT_EPOCH   = 99970
BSTAR          = .11644E-3
MEAN_MOTION_DOT = .412E-5
MEAN_MOTION_DDOT = 0

CCSDS_OMM_VERS = 2.0
CREATION_DATE  = 
ORIGINATOR     = 

OBJECT_NAME    = ISIS 1
OBJECT_ID      = 1969-009A
CENTER_NAME    = EARTH
REF_FRAME      = TEME
TIME_SYSTEM    = UTC
MEAN_ELEMENT_THEORY = SGP/SGP4

EPOCH          = 2025-10-26T14:55:19.394400
MEAN_MOTION    = 11.30328475
ECCENTRICITY   = .1708189
INCLINATION    = 88.4550
RA_OF_ASC_NODE = 169.9438
ARG_OF_PERICENTER = 359.8858
MEAN_ANOMALY   = 0.1591

EPHEMERIS_TYPE = 0
CLASSIFICATION_TYPE = U
NORAD_CAT_ID   = 3669
ELEMENT_SET_NO = 999
REV_AT_EPOCH   = 33338
BSTAR          = .18344E-3
MEAN_MOTION_DOT = .264E-5
MEAN_MOTION_DDOT = 0

CCSDS_OMM_VERS = 2.0
CREATION_DATE  = 
ORIGINATOR     = 

OBJECT_NAME    = SERT 2
OBJECT_ID      = 1970-009A
CENTER_NAME    = EARTH
REF_FRAME      = TEME
TIME_SYSTEM    = UTC
MEAN_ELEMENT_THEORY = SGP/SGP4

EPOCH          = 2025-10-26T19:47:47.846112
MEAN_MOTION    = 13.58709591
ECCENTRICITY   = .0005249
INCLINATION    = 99.2565
RA_OF_ASC_NODE = 245.3606
ARG_OF_PERICENTER = 138.2894
MEAN_ANOMALY   = 276.1009

EPHEMERIS_TYPE = 0
CLASSIFICATION_TYPE = U
NORAD_CAT_ID   = 4327
ELEMENT_SET_NO = 999
REV_AT_EPOCH   = 76171
BSTAR          = .91355E-4
MEAN_MOTION_DOT = .26E-6
MEAN_MOTION_DDOT = 0

CCSDS_OMM_VERS = 2.0
CREATION_DATE  = 
ORIGINATOR     = 

OBJECT_NAME    = SL-3 R/B
OBJECT_ID      = 1971-028B
CENTER_NAME    = EARTH
REF_FRAME      = TEME
TIME_SYSTEM    = UTC
MEAN_ELEMENT_THEORY = SGP/SGP4

EPOCH          = 2025-10-26T19:50:42.436320
MEAN_MOTION    = 15.51125119
ECCENTRICITY   = .0024096
INCLINATION    = 81.2410
RA_OF_ASC_NODE = 216.0376
ARG_OF_PERICENTER = 48.4952
MEAN_ANOMALY   = 311.8358

EPHEMERIS_TYPE = 0
CLASSIFICATION_TYPE = U
NORAD_CAT_ID   = 5118
ELEMENT_SET_NO = 999
REV_AT_EPOCH   = 96785
BSTAR          = .55337E-3
MEAN_MOTION_DOT = .3277E-3
MEAN_MOTION_DDOT = 0

CCSDS_OMM_VERS = 2.0
CREATION_DATE  = 
ORIGINATOR     = 

OBJECT_NAME    = ASTEX 1
OBJECT_ID      = 1971-089A
CENTER_NAME    = EARTH
REF_FRAME      = TEME
TIME_SYSTEM    = UTC
MEAN_ELEMENT_THEORY = SGP/SGP4

EPOCH          = 2025-10-26T17:28:55.125120
MEAN_MOTION    = 14.50552614
ECCENTRICITY   = .0015901
INCLINATION    = 92.7112
RA_OF_ASC_NODE = 108.4189
ARG_OF_PERICENTER = 169.1455
MEAN_ANOMALY   = 191.0098

EPHEMERIS_TYPE = 0
CLASSIFICATION_TYPE = U
NORAD_CAT_ID   = 5560
ELEMENT_SET_NO = 999
REV_AT_EPOCH   = 84288
BSTAR          = .2319E-3
MEAN_MOTION_DOT = .908E-5
MEAN_MOTION_DDOT = 0

CCSDS_OMM_VERS = 2.0
CREATION_DATE  = 
ORIGINATOR     = 

OBJECT_NAME    = SL-8 R/B
OBJECT_ID      = 1971-119B
CENTER_NAME    = EARTH
REF_FRAME      = TEME
TIME_SYSTEM    = UTC
MEAN_ELEMENT_THEORY = SGP/SGP4

EPOCH          = 2025-10-26T18:36:23.874912
MEAN_MOTION    = 14.34672030
ECCENTRICITY   = .056153
INCLINATION    = 73.8881
RA_OF_ASC_NODE = 65.4182
ARG_OF_PERICENTER = 59.3214
MEAN_ANOMALY   = 306.2040

EPHEMERIS_TYPE = 0
CLASSIFICATION_TYPE = U
NORAD_CAT_ID   = 5730
ELEMENT_SET_NO = 999
REV_AT_EPOCH   = 63626
BSTAR          = .37381E-3
MEAN_MOTION_DOT = .6985E-4
MEAN_MOTION_DDOT = 0

CCSDS_OMM_VERS = 2.0
CREATION_DATE  = 
ORIGINATOR     = 

OBJECT_NAME    = OAO 3 (COPERNICUS)
OBJECT_ID      = 1972-065A
CENTER_NAME    = EARTH
REF_FRAME      = TEME
TIME_SYSTEM    = UTC
MEAN_ELEMENT_THEORY = SGP/SGP4

EPOCH          = 2025-10-26T20:21:55.634976
MEAN_MOTION    = 14.59844418
ECCENTRICITY   = .0006348
INCLINATION    = 35.0070
RA_OF_ASC_NODE = 339.7736
ARG_OF_PERICENTER = 149.8920
MEAN_ANOMALY   = 18.3967

EPHEMERIS_TYPE = 0
CLASSIFICATION_TYPE = U
NORAD_CAT_ID   = 6153
ELEMENT_SET_NO = 999
REV_AT_EPOCH   = 82662
BSTAR          = .12268E-3
MEAN_MOTION_DOT = .575E-5
MEAN_MOTION_DDOT = 0

