ATLAS CENTAUR 2         
1 00694U 63047A   25299.83447227  .00004526  00000+0  54749-3 0  9991
2 00694  30.3551 223.3708 0550460 341.1174  16.9730 14.11305313112691
THOR AGENA D R/B        
1 00733U 64002A   25299.76215440  .00000376  00000+0  15154-3 0  9995
2 00733  99.1225 300.8377 0031994 289.1265  70.6455 14.33918080219107
SL-3 R/B                
1 00877U 64053B   25299.55398499  .00000399  00000+0  10245-3 0  9994
2 00877  65.0789   4.4398 0069259 336.5211  23.2730 14.61203689247199
SL-8 R/B                
1 02802U 67045B   25299.24684943  .00000613  00000+0  17743-3 0  9995
2 02802  74.0107 239.1385 0065705 278.7162  80.6557 14.45481578 69597
SL-8 R/B                
1 03230U 68040B   25299.82537976  .00005261  00000+0  40137-3 0  9991
2 03230  74.0321 226.9703 0023249  83.2556 277.1277 15.02059761 69908
OAO 2                   
1 03597U 68110A   25299.66657269  .00000412  00000+0  11644-3 0  9999
2 03597  34.9938 293.4473 0005884 207.5480 152.4899 14.47200910999705
ISIS 1                  
1 03669U 69009A   25299.62175225  .00000264  00000+0  18344-3 0  9999
2 03669  88.4550 169.9438 1708189 359.8858   0.1591 11.30328475333386
SERT 2                  
1 04327U 70009A   25299.82485933  .00000026  00000+0  91355-4 0  9995
2 04327  99.2565 245.3606 0005249 138.2894 276.1009 13.58709591761710
SL-3 R/B                
1 05118U 71028B   25299.82688005  .00032770  00000+0  55337-3 0  9991
2 05118  81.2410 216.0376 0024096  48.4952 311.8358 15.51125119967856
ASTEX 1                 
1 05560U 71089A   25299.72841580  .00000908  00000+0  23190-3 0  9997
2 05560  92.7112 108.4189 0015901 169.1455 191.0098 14.50552614842889
SL-8 R/B                
1 05730U 71119B   25299.77527633  .00006985  00000+0  37381-3 0  9993
2 05730  73.8881  65.4182 0561530  59.3214 306.2040 14.34672030636260
OAO 3 (COPERNICUS)      
1 06153U 72065A   25299.84856059  .00000575  00000+0  12268-3 0  9995
2 06153  35.0070 339.7736 0006348 149.8920  18.3967 14.59844418826620
